[{"OBJECT_NAME":"STARLINK-31778","OBJECT_ID":"2024-080B","EPOCH":"2026-03-09T06:16:57.991584","MEAN_MOTION":15.27576235,"ECCENTRICITY":0.00010359,"INCLINATION":43.0012,"RA_OF_ASC_NODE":37.174,"ARG_OF_PERICENTER":252.2473,"MEAN_ANOMALY":107.8266,"EPHEMERIS_TYPE":0,"CLASSIFICATION_TYPE":"U","NORAD_CAT_ID":59602,"ELEMENT_SET_NO":999,"REV_AT_EPOCH":10450,"BSTAR":3.540937e-6,"MEAN_MOTION_DOT":-1.65e-6,"MEAN_MOTION_DDOT":0},{"OBJECT_NAME":"USA 24","OBJECT_ID":"1987-043F","EPOCH":"2026-03-09T22:20:48.799968","MEAN_MOTION":13.84752929,"ECCENTRICITY":0.07971297,"INCLINATION":63.2957,"RA_OF_ASC_NODE":276.5953,"ARG_OF_PERICENTER":102.7417,"MEAN_ANOMALY":266.3854,"EPHEMERIS_TYPE":0,"CLASSIFICATION_TYPE":"U","NORAD_CAT_ID":18010,"ELEMENT_SET_NO":999,"REV_AT_EPOCH":33170,"BSTAR":0.00081528793,"MEAN_MOTION_DOT":0.00014135,"MEAN_MOTION_DDOT":0}]
